STARLINK-30986          
1 58492U 23186V   26068.00853274  .00000713  00000+0  36268-4 0  9998
2 58492  43.0032  67.3550 0001322 276.4823  83.5877 15.26746052125787
TIANHUI 7               
1 67300U 25314A   26052.67009905  .00006572  00000+0  25701-3 0  9999
2 67300  97.4117 129.4508 0001691  83.9579 276.1853 15.26178925  8178
